CUTE-1 (CO-55)          
1 27844U 03031E   20048.77900844  .00000037  00000-0  36473-4 0  9992
2 27844  98.6843  58.3219 0010645  49.3465 310.8637 14.22221247862944
CUBESAT XI-IV (CO-57)   
1 27848U 03031J   20048.84107038  .00000032  00000-0  34246-4 0  9999
2 27848  98.6914  58.9269 0010665  60.3033 299.9205 14.21810398862807
CUBESAT XI-V            
1 28895U 05043F   20048.83005751  .00000074  00000-0  23029-4 0  9998
2 28895  97.9889 188.7063 0015579 303.4088  56.5624 14.63737876763196
CUTE-1.7+APD II (CO-65) 
1 32785U 08021C   20049.46845188  .00000160  00000-0  22791-4 0  9997
2 32785  97.5647  42.8230 0013352 164.8815 195.2804 14.88418201640096
AAUSAT-II               
1 32788U 08021F   20048.84296768  .00000723  00000-0  71110-4 0  9999
2 32788  97.4929  58.7038 0013361  99.7931 260.4799 14.94947468641399
DELFI-C3 (DO-64)        
1 32789U 08021G   20049.13401931  .00001265  00000-0  87361-4 0  9990
2 32789  97.4350  96.0579 0012205  16.2476 343.9141 15.07457965643783
SEEDS II (CO-66)        
1 32791U 08021J   20049.54156418  .00000380  00000-0  43794-4 0  9994
2 32791  97.5362  49.0263 0014301 137.4371 222.7959 14.90973332640596
SWISSCUBE               
1 35932U 09051B   20048.71066765  .00000095  00000-0  32416-4 0  9993
2 35932  98.6033 227.1396 0008452 132.6103 227.5808 14.56358263552252
BEESAT-1                
1 35933U 09051C   20049.45515899  .00000097  00000-0  32798-4 0  9998
2 35933  98.6044 229.7520 0006524 140.6221 219.5451 14.56438695552512
ITUPSAT1                
1 35935U 09051E   20049.03606327  .00000073  00000-0  28067-4 0  9999
2 35935  98.6153 229.5350 0008814 142.2606 217.9210 14.55589091552187
TISAT 1                 
1 36799U 10035E   20048.93305456  .00000416  00000-0  47910-4 0  9998
2 36799  98.1804 214.6616 0012322  11.3286 348.8207 14.91271226521165
M-CUBED & EXP-1 PRIME   
1 37855U 11061F   20049.33802410  .00001303  00000-0  72000-4 0  9993
2 37855 101.7260  75.8119 0171870  71.4102 290.5691 15.06005372453594
AEROCUBE 4.5A           
1 38767U 12048K   20048.64690226  .00000350  00000-0  42407-4 0  9994
2 38767  64.6641 254.0405 0155807 176.5653 183.6570 14.92158883 23777
AEROCUBE 4.5B           
1 38768U 12048L   20048.81721939  .00000711  00000-0  66011-4 0  9998
2 38768  64.6650 224.1761 0144537 173.2077 187.1043 14.95787578 23836
STRAND-1                
1 39090U 13009E   20049.16025620  .00000020  00000-0  22064-4 0  9991
2 39090  98.4666 255.7354 0008065 284.5676  75.4615 14.35118081365453
SOMP                    
1 39134U 13015E   20049.04572462  .00000785  00000-0  44370-4 0  9997
2 39134  64.8635 308.4428 0037558 263.5758  96.1092 15.20747433377748
BEESAT-3                
1 39135U 13015F   20048.88305510  .00000808  00000-0  48673-4 0  9993
2 39135  64.8685 330.7455 0045639 265.1348  94.4566 15.17935582377303
BEESAT-2                
1 39136U 13015G   20048.88177176  .00000461  00000-0  32818-4 0  9998
2 39136  64.8703 335.3304 0030026 278.9189  80.8538 15.17333090376828
NEE-01 PEGASO           
1 39151U 13018B   20048.79974195  .00000100  00000-0  20170-4 0  9992
2 39151  97.9702 148.4930 0018204 128.9114 231.3724 14.80128449367835
ESTCUBE 1               
1 39161U 13021C   20049.46365612  .00000101  00000-0  23800-4 0  9994
2 39161  97.9702 134.8809 0008436 265.1847  94.8390 14.72281005364380
POPACS 1                
1 39268U 13055D   20049.27788324  .00002602  00000-0  71654-4 0  9995
2 39268  81.0005  63.1256 0619627 218.8992 136.6047 14.38494203332189
POPACS 2                
1 39269U 13055E   20048.82490759  .00001952  00000-0  56426-4 0  9995
2 39269  81.0130  98.8305 0679043 311.5934  42.8906 14.24978953328804
POPACS 3                
1 39270U 13055F   20048.63664935  .00001530  00000-0  46749-4 0  9994
2 39270  81.0163 119.0426 0711530   9.8000 351.6233 14.16573278308029
ZACUBE-1 (TSHEPISOSAT)  
1 39417U 13066B   20049.05480330  .00000172  00000-0  28076-4 0  9995
2 39417  97.5629  53.7951 0057769 313.7685  45.8756 14.81222806337216
WNISAT-1                
1 39423U 13066H   20049.36502506  .00000019  00000-0  14007-4 0  9995
2 39423  97.7978 339.0706 0174094 270.1611  87.9635 14.53095299330989
TRITON-1                
1 39427U 13066M   20048.89960299  .00000213  00000-0  41507-4 0  9994
2 39427  97.7098  16.6378 0115093 103.5787 257.8269 14.67943795333977
GOMX-1                  
1 39430U 13066Q   20049.54467040  .00000066  00000-0  21070-4 0  9996
2 39430  97.7789 355.4023 0150130 202.0185 157.4507 14.59348434332314
CUBEBUG-2 (LO-74)       
1 39440U 13066AA  20049.02218336  .00000194  00000-0  33932-4 0  9994
2 39440  97.6205  38.2538 0080516  12.3784 347.9379 14.75959144336019
NEE-02 KRYSAOR          
1 39441U 13066AB  20048.95330554  .00000135  00000-0  26260-4 0  9994
2 39441  97.6268  35.7822 0082264  20.7792 339.6729 14.74980381335800
FUNCUBE-1 (AO-73)       
1 39444U 13066AE  20048.91878085  .00000217  00000-0  33051-4 0  9996
2 39444  97.5587  55.8224 0056762 306.8666  52.7351 14.82064015336101
UWE-3                   
1 39446U 13066AG  20049.55528109  .00000195  00000-0  32522-4 0  9995
2 39446  97.5917  45.9473 0069503 342.2407  17.6376 14.78494930335441
AEROCUBE 5A             
1 39465U 13072D   20048.93414096  .00003920  00000-0  33040-3 0  9997
2 39465 120.4992  87.0274 0280082 120.8807 242.0102 14.75143350 23571
AEROCUBE 5B             
1 39466U 13072E   20049.17617312  .00006570  00000-0  45890-3 0  9991
2 39466 120.4926 118.2638 0253143 128.3466 234.0626 14.84438779 23701
BRITE-CA1 (TORONTO)     
1 40020U 14033L   20049.13291095  .00000052  00000-0  17057-4 0  9993
2 40020  97.7321 244.2108 0088819  96.6108 264.5216 14.66622755303132
DUCHIFAT-1              
1 40021U 14033M   20049.27533353  .00000410  00000-0  47529-4 0  9990
2 40021  97.9369 339.8317 0012234 329.8788  30.1725 14.90813205307981
NANOSATC-BR1            
1 40024U 14033Q   20049.29889453  .00000196  00000-0  26218-4 0  9993
2 40024  97.9235 336.6097 0011613 334.4223  25.6418 14.89996543307862
QB50P1                  
1 40025U 14033R   20048.70442490  .00000158  00000-0  22802-4 0  9998
2 40025  97.9129 333.0576 0012028 343.4222  16.6600 14.89070976307123
QB50P2                  
1 40032U 14033Y   20048.78269003  .00000198  00000-0  27338-4 0  9994
2 40032  97.9030 330.8559 0011371 340.0267  20.0503 14.88601130307559
PERSEUS-M2              
1 40037U 14033AD  20048.70638553  .00000041  00000-0  10851-4 0  9990
2 40037  97.8910 325.9520 0014240 354.1492   5.9555 14.86516006306729
PERSEUS-M1              
1 40039U 14033AF  20048.88711088  .00000059  00000-0  13042-4 0  9990
2 40039  97.8882 325.0250 0014013 351.4273   8.6701 14.86136122306668
POLYITAN-1              
1 40042U 14033AJ  20048.74688749  .00000291  00000-0  37135-4 0  9993
2 40042  97.9210 333.5502 0014027 332.3096  27.7372 14.88806376307549
TIGRISAT                
1 40043U 14033AK  20049.16018672  .00000112  00000-0  23816-4 0  9996
2 40043  97.7257 271.1072 0060656  28.6504 331.8015 14.74341918304626
AEROCUBE 6A             
1 40045U 14033AM  20049.18294201  .00000215  00000-0  38095-4 0  9993
2 40045  97.7505 276.0280 0058362  20.4016 339.9506 14.75518839304610
AEROCUBE 6B             
1 40046U 14033AN  20049.12360994  .00000215  00000-0  38045-4 0  9996
2 40046  97.7423 275.3738 0057577  19.9159 340.4280 14.75497540304743
UKUBE-1                 
1 40074U 14037F   20049.43455850  .00000238  00000-0  35663-4 0  9999
2 40074  98.4522 230.6317 0005053 132.2280 227.9363 14.84194318303955
BRITE-PL2 (HEWELIUSZ)   
1 40119U 14049B   20048.80079876  .00000058  00000-0  13302-4 0  9998
2 40119  97.8962 142.2266 0018399 140.2382 220.0185 14.84471164297793
FIREBIRD 4              
1 40378U 15003C   20048.90002907  .00001874  00000-0  75930-4 0  9990
2 40378  99.1116  84.4650 0124985 356.9205   3.1241 15.19631604279002
GRIFEX                  
1 40379U 15003D   20049.17748079  .00001484  00000-0  66064-4 0  9993
2 40379  99.1177  77.3988 0133991  18.6503 341.9566 15.16089265278622
EXOCUBE (CP10)          
1 40380U 15003E   20048.55771768  .00001369  00000-0  63993-4 0  9997
2 40380  99.1240  72.6453 0139276  34.0311 326.9751 15.14069875278252
AEROCUBE 8A             
1 40659U 15025J   20049.43829257  .00014080  00000-0  16650-3 0  9996
2 40659  55.0179 127.2170 0112298 223.3267 135.8899 15.54292046 24873
AEROCUBE 8B             
1 40660U 15025K   20049.37760204  .00013412  00000-0  15774-3 0  9991
2 40660  55.0151 125.7446 0111437 224.9601 134.2371 15.54585671 24874
TIANWANG 1C (TW-1C)     
1 40926U 15051B   20049.37590485  .00011882  00000-0  14055-3 0  9997
2 40926  97.1039 100.6260 0007050 164.8854 255.5159 15.61399391248266
TIANWANG 1A (TW-1A)     
1 40928U 15051D   20049.57854225  .00001763  00000-0  43305-4 0  9994
2 40928  97.1226  80.2896 0008977 262.9647 248.7534 15.41970215246899
EXACTVIEW 9             
1 40936U 15052G   20048.19404506  .00000736  00000-0  13828-4 0  9990
2 40936   6.0036 124.9106 0010773 344.8264  15.1540 14.76542726237272
AEROCUBE 5C             
1 40965U 15058B   20048.70374957  .00000028  00000-0  23199-4 0  9997
2 40965  64.7788 149.6004 0170283 118.9588 242.8710 14.74478185 23504
AEROCUBE 7              
1 40966U 15058C   20048.77606064  .00000050  00000-0  25661-4 0  9993
2 40966  64.7788 148.0297 0169141 118.6617 243.1612 14.74768756 23515
ATHENOXAT 1             
1 41168U 15077C   20048.82417007  .00001640  00000-0  50465-4 0  9998
2 41168  14.9872 226.3202 0011559 249.6651 110.2428 15.14109821231033
GALASSIA                
1 41170U 15077E   20048.10640247  .00001582  00000-0  46796-4 0  9993
2 41170  14.9875 223.8445 0012820 265.3313  94.5543 15.14421175230997
VELOX-II                
1 41171U 15077F   20048.23061773  .00001310  00000-0  36649-4 0  9994
2 41171  14.9905 263.4189 0008794 171.2172 188.8303 15.11523347230655
